#dP2020  7 12  0  0  0.00000000      96 __u+U ITR00 FIT  IAC
## 2114      0.00000000   900.00000000 59042 0.0000000000000
+  115   C06C07C08C09C10C11C12C13C14C16C19C20C21C22C23C24C25
+        C26C27C28C29C30C32C33C34C35C36C37C38C39C40C43C44C45
+        C46E01E02E03E04E05E07E08E09E11E12E13E14E15E18E19E21
+        E24E25E26E27E30E31E33E36G01G02G03G04G05G06G07G08G09
+        G10G11G12G13G14G15G16G17G18G19G20G21G22G24G25G26G27
+        G28G29G30G31G32J01J02J03R01R02R03R04R05R07R08R09R11
+        R12R13R14R15R16R17R18R19R20R21R23R24R26  0  0  0  0
++         9  9  7  9  9  7  6  6  7  9  7  7  7  9  8  9  7
++         7  7  7  8  7  6  6  7  6  6  6  6 10  7 11 10  8
++        10  7  6  6  6  6  6  7  6  7  6  6  5  6  6  7  7
++         6  7  7  6  6  7  6  5  6  5  6  6  7  6  6  5  6
++         6  6  5  6  6  6  7  6  7  5  7  7  7  5  6  6  5
++         6  0  6  6  6  8  8 13  6  7  6  6  6  7  7  6  6
++         6  7  6  6  6  6  5  7  5  5  6  6  6  0  0  0  0
%c M  cc GPS ccc cccc cccc cccc cccc ccccc ccccc ccccc ccccc
%c cc cc ccc ccc cccc cccc cccc cccc ccccc ccccc ccccc ccccc
%f  0.0000000  0.000000000  0.00000000000  0.000000000000000
%f  0.0000000  0.000000000  0.00000000000  0.000000000000000
%i    0    0    0    0      0      0      0      0         0
%i    0    0    0    0      0      0      0      0         0
/* INFORMATION & ANALYSIS CENTER (IAC)      ULTRA-RAPID DATA
/* S/V CLOCKS ARE ALIGNED TO GNSS TIME                      
/* G:C1WC2W R:C1PC2P E:C1XC5X C:C2IC6I J:C1CC2S             
/* PCV:IGS14_2108 OL/AL:FES2004  NONE     YN ORB:CoN CLK:CoN
*  2020 07 12  5 45  0.00000000
PC06 -22760.704337  24630.801505 -25416.430431    778.752930
PC07 -14393.471712  38417.934777  -8293.946428    -27.633908
PC08  -4723.798063  24071.392258  34452.996616   -369.372233
PC09  -6919.200294  25365.062359 -32769.238113    670.629623
PC10  -4708.528816  41472.842921   4025.192132   -238.977754
PC11   7032.519249  14853.569421  22613.795266   -485.466247
PC12 -14173.952490  13316.339499  20027.130921    429.136432
PC13   8392.270495  31772.115934  26653.929770 999999.999999
PC14   -317.905534  23142.643605 -15516.927857    656.365529
PC16 -19849.486933  25107.910947 -27469.759632   -601.311520
PC19  -7309.051353 -16968.808635  20947.707261    472.389876
PC20   7152.240615 -25585.005164   8620.754432   -840.418134
PC21 -17955.119822  19187.445101   9373.079976   -646.354658
PC22 -17855.299461   1649.985653  21380.155897   -773.263730
PC23  19749.202851   8789.471493  17654.445526   -844.896338
PC24   1872.046039  23701.722356 -14621.194373   -767.573790
PC25  16226.443750  22567.361621   2570.405655   -683.083452
PC26 -11789.695290  11397.627946 -22583.160574    751.537847
PC27  22490.375171  -9400.099651 -13591.597997    362.890772
PC28  27575.483930   2446.268759   3555.563753   -198.579097
PC29 -16959.875663 -12182.406767 -18522.359969    254.799502
PC30   4071.321949 -15832.859520 -22620.228250    345.201024
PC32  17799.430621 -19375.623592  -9305.750856   -876.076142
PC33   7369.270652  16965.581360 -20879.609877   -800.274035
PC34  -3575.465283  15886.644611  22653.786278   -895.768757
PC35 -27622.149169  -1647.370186  -3746.844053   -754.213307
PC36 -15552.474268 -23060.133662  -2301.046299   -866.859786
PC37  12520.266705 -10437.481039  22674.462202   -867.877906
PC38  -4498.807901  26579.479288  32440.194167     88.447742
PC39 -17510.044947  26457.890500 -27815.439505 999999.999999
PC40 -12425.832244  40180.438904   -373.112587     60.787781
PC43  16581.247572  12499.996711  18625.306224   -278.471354
PC44 -22349.455192  10075.569855  13351.849297 999999.999999
PC45 -19689.680900  -8783.263450 -17700.395541 999999.999999
PC46  -2433.571471 -23845.738355  14284.822885 999999.999999
PE01 -14244.131900  12044.345121 -22977.692228   -896.513849
PE02  14213.104374 -12149.130583  22947.313882    146.713961
PE03  25301.907014 -14939.190135  -3651.620756   -319.662713
PE04 -13679.364840  22120.013014 -14119.889229   -564.092257
PE05  22223.399342   1111.618945 -19516.287465   -363.972347
PE07  -6189.344384 -16395.065588  23868.024943   -407.777571
PE08  13387.995147 -22158.602564  14372.704579   6150.885723
PE09   6334.786822  16150.868788 -23971.820054   5999.428833
PE11  16770.152318  18685.721378  15653.061167   4047.192806
PE12  -4408.960483  15791.274208  24638.794324   5710.614026
PE13 -16654.905403 -18619.124107 -15882.845061    402.260281
PE14 -18052.075223 -13320.963522 -22029.355184  -1081.253061
PE15   4066.542302 -15835.583266 -24674.915237    860.308509
PE18  23311.700254   2088.220901  10429.611118  -1184.035607
PE19 -25702.631452  13535.413506   5695.671772     25.597531
PE21 -16182.200627 -10118.631953 -22626.231358   -609.614506
PE24   8408.346207  27007.540737   8734.981423   5355.374419
PE25  16165.866652  10254.343118  22582.089352   -513.485889
PE26 -27606.589424 -10329.694724   2686.358013   2969.732868
PE27  -8708.958372 -26808.646232  -9032.478157    179.305797
PE30   4265.388478 -27474.168089  10145.601330   3754.174027
PE31  -3827.037317  27668.161161  -9776.613039   -473.190450
PE33 -22411.152578   3743.814559  18973.015384   -465.025203
PE36  27595.505368  10466.698591  -2240.705802    535.233958
PG01 -21920.701277 -14766.125644   3842.547111     24.452629
PG02   8938.241420  19872.634097  15857.642885   -485.964911
PG03 -12937.798821 -10119.914058  20825.759600   -237.112854
PG04 -22518.686496  -2524.360779  13895.139051   -113.683314
PG05   2775.289685  25005.711800  -8337.545868    -16.478267
PG06  -3618.499126  15474.072715  21322.530970   -301.872878
PG07 -19933.539052   -424.530154 -17465.482751   -325.285486
PG08 -13773.679747  -9704.181328 -20584.223713    -40.656074
PG09 -25271.548665   7334.578725   3624.907426   -252.142832
PG10  11603.642546 -20479.522075 -11975.169398   -397.207606
PG11 -20755.318597 -12834.877563 -10567.027915   -223.531718
PG12  11791.098881  11167.855858  20813.533132     94.825134
PG13   4788.895307  14384.591858 -21929.512632     26.009853
PG14  10633.659649 -16408.534726  18243.740078      0.720501
PG15  15617.140546   8848.602531 -20002.196171   -218.123968
PG16  -1808.575011 -23838.408867 -11297.638275   -181.655116
PG17 -18594.389698  14605.678246  12475.066623    294.630936
PG18  19428.804983     48.884542 -18136.774141    244.084377
PG19 -12503.599872  15361.027460  17374.624305   -133.170463
PG20  14768.135606 -10043.817854 -19669.010555    527.318145
PG21   6445.760099 -13758.301451 -21075.521948     22.654401
PG22 -11275.598179 -17477.961017  16807.471005   -772.599082
PG24  22257.515887  14792.017826   1236.629381    -15.522884
PG25  15198.562269   -714.054526  21512.936006     22.383770
PG26   4894.462825 -25874.212256   2311.667200    241.817685
PG27  -2134.602534 -15005.319274 -21926.340560   -343.680833
PG28 -12293.996491  21213.516682  -9812.977446    700.379212
PG29  25299.025701  -2319.318750   7759.214933 999999.999999
PG30 -12483.376620   9806.085875 -21261.650533   -260.284965
PG31   2788.633013 -16562.317950  20423.512178    -55.033000
PG32  17154.707464 -16039.380527  12347.820096    315.586420
PJ01 -33233.852736  25339.910892  10385.570357   -257.469479
PJ02 -19837.806850  24919.222390 -23113.238206     -1.203279
PJ03 -28639.317377  26846.102812  20704.114718 999999.999999
PR01 -18041.243989  15272.136427   9571.900497     64.422792
PR02 -10039.916910  20477.290456 -11439.945766    435.865502
PR03   3756.847796  12014.871110 -22148.654342     18.383422
PR04  15110.000821  -3370.260821 -20242.776577     55.978873
PR05  18021.989397 -16676.213597  -6862.164569     53.937532
PR07  -4312.622375 -11504.799909  22387.118236    -38.377828
PR08 -15217.764939   3253.474322  20271.876247    -53.420006
PR09  -4856.582857 -23780.175991   7986.308334    142.948007
PR11 -13488.697055  -8109.608799 -20073.192954    -30.228617
PR12  -7748.358973   9494.525357 -22343.262899    146.438796
PR13   2617.040377  22410.232836 -11904.042149    -41.099594
PR14  11280.155456  22118.760636   5817.936913     53.252072
PR15  13395.616050   9027.820600  19763.111593    106.930911
PR16   7456.765141 -10200.579497  22121.584231     -4.611733
PR17  15507.746302  10655.478485  17245.584167    340.521892
PR18  24833.404895   5326.785552   2060.278480     41.977528
PR19  21304.449076  -2043.888243 -13889.671052   -101.967033
PR20   3570.671167  -9848.978621 -23255.581308   -416.522717
PR21 -16277.241290 -10466.060049 -16609.224340   -137.517859
PR23 -16191.582025   5668.112430  18862.534339    318.094686
PR24  -2816.420916  10508.313182  23080.599218      5.979169
PR26   8786.907151  -8601.004636 -22347.454095   -364.460158
EOF
